OBJECT_NAME,OBJECT_ID,EPOCH,MEAN_MOTION,ECCENTRICITY,INCLINATION,RA_OF_ASC_NODE,ARG_OF_PERICENTER,MEAN_ANOMALY,EPHEMERIS_TYPE,CLASSIFICATION_TYPE,NORAD_CAT_ID,ELEMENT_SET_NO,REV_AT_EPOCH,BSTAR,MEAN_MOTION_DOT,MEAN_MOTION_DDOT
STARLINK-32702,2024-251A,2025-01-25T22:00:01.999584,15.49326013,.0001272,53.1598,78.8949,93.3494,226.6163,0,U,62432,999,544,-.2712E-3,-.1551E-3,0
STARLINK-32712,2024-251B,2025-01-25T22:00:01.999584,15.49230953,.0001089,53.1598,78.8911,96.6680,225.1443,0,U,62433,999,544,.2196E-2,.12329E-2,0
STARLINK-32674,2024-251C,2025-01-25T22:00:01.999584,15.46966157,.0000909,53.1601,78.8927,84.6044,236.1485,0,U,62434,999,544,-.32561E-1,-.1509327E-1,0
STARLINK-32711,2024-251D,2025-01-25T22:00:01.999584,15.49309135,.00014,53.1597,78.8828,76.5170,249.2079,0,U,62435,999,544,.939E-4,.4777E-4,0
STARLINK-32697,2024-251E,2025-01-25T22:00:01.999584,15.49258217,.0001196,53.1599,78.8744,88.7402,241.0231,0,U,62436,999,544,.40693E-3,.22207E-3,0
STARLINK-32693,2024-251F,2025-01-25T22:00:01.999584,15.75263970,.0001531,53.1588,76.9409,97.3397,107.8098,0,U,62437,999,545,-.12055E-1,-.1643216E-1,0
STARLINK-32721,2024-251G,2025-01-25T22:00:01.999584,15.49289977,.0001193,53.1598,78.8708,85.3274,246.1496,0,U,62438,999,538,.78365E-3,.43348E-3,0
STARLINK-32709,2024-251H,2025-01-25T22:00:01.999584,15.48474091,.0001235,53.1597,78.8634,84.1652,250.7328,0,U,62439,999,544,-.31082E-1,-.1518245E-1,0
STARLINK-32689,2024-251J,2025-01-25T22:00:01.999584,15.49416267,.0001137,53.1597,78.8666,95.1219,238.3789,0,U,62440,999,544,-.33036E-2,-.180681E-2,0
STARLINK-32724,2024-251K,2025-01-25T22:00:01.999584,15.49399527,.0001034,53.1599,78.8588,83.0353,254.1658,0,U,62441,999,527,-.46052E-2,-.249365E-2,0
STARLINK-32291,2024-251L,2025-01-25T22:00:01.999584,15.49310882,.0001218,53.1596,78.8548,89.3090,249.8254,0,U,62442,999,511,.43333E-4,.1962E-4,0
STARLINK-32736,2024-251M,2025-01-25T22:00:01.999584,15.47757205,.0001053,53.1597,78.8531,100.7842,238.9310,0,U,62443,999,528,-.3163E-1,-.1507563E-1,0
STARLINK-32737,2024-251N,2025-01-25T22:00:01.999584,15.49325797,.0001401,53.1596,78.8469,95.0813,247.8549,0,U,62444,999,544,.31663E-3,.1721E-3,0
STARLINK-32683,2024-251P,2025-01-25T22:00:01.999584,15.49280633,.0001327,53.1596,78.8428,90.4843,254.3802,0,U,62445,999,544,.12112E-2,.6743E-3,0
STARLINK-32726,2024-251Q,2025-01-25T22:00:01.999584,15.49307178,.0001365,53.1596,78.8387,86.5234,260.2790,0,U,62446,999,511,.4445E-4,.2024E-4,0
STARLINK-32730,2024-251R,2025-01-25T22:00:01.999584,15.49302088,.0001319,53.1595,78.8308,93.0292,257.6058,0,U,62447,999,544,.46383E-3,.25426E-3,0
STARLINK-32719,2024-251S,2025-01-25T13:49:56.946720,15.73831591,.0001265,53.1597,78.7731,129.1841,230.9291,0,U,62448,999,518,.88928E-4,.12217E-3,0
STARLINK-32723,2024-251T,2025-01-25T22:00:01.999584,15.49228542,.0001293,53.1596,78.8269,105.3262,247.1503,0,U,62449,999,528,.2023E-2,.113387E-2,0
STARLINK-32722,2024-251U,2025-01-25T22:00:01.999584,15.49270349,.000121,53.1596,78.8225,98.1987,256.2995,0,U,62450,999,506,.86875E-3,.481E-3,0
STARLINK-32720,2024-251V,2025-01-25T22:00:01.999584,15.44102076,.0001026,53.1601,78.8483,79.5839,261.7523,0,U,62451,999,506,-.359E-1,-.1507588E-1,0
STARLINK-32656,2024-251W,2025-01-25T22:00:01.999584,15.49304572,.000132,53.1596,78.8148,95.2951,263.0081,0,U,62452,999,528,.28833E-3,.15617E-3,0
STARLINK-32690,2024-251X,2025-01-25T22:00:01.999584,15.49295553,.0001213,53.1596,78.8107,94.1545,266.0705,0,U,62453,999,506,.43133E-3,.23602E-3,0
ASTRANIS UTILITYSAT,2024-252A,2025-01-21T15:52:24.349152,1.09809624,.7988891,11.1698,355.9791,187.7925,139.9006,0,U,62454,999,26,-.11476E-1,-.11E-5,0
NUVIEW ALPHA,2024-252B,2025-01-21T22:59:59.999712,1.09000805,.7905305,11.0838,357.6757,184.9178,265.7366,0,U,62455,999,25,0,-.113E-5,0
AGILA,2024-252C,2025-01-21T14:01:56.053056,1.10005472,.8010187,11.4595,355.6105,187.8727,139.0225,0,U,62456,999,25,-.43587E-1,-.19E-5,0
NUVIEW BRAVO,2024-252D,2025-01-21T15:58:38.481024,1.08199063,.7941964,11.2306,355.8383,187.7325,140.7903,0,U,62457,999,25,-.22724E-1,-.115E-5,0
FALCON 9 R/B,2024-252E,2025-01-25T05:18:24.934752,1.16219878,.8276721,12.4013,355.1216,189.0609,128.9032,0,U,62458,999,28,.67645E-3,.2122E-4,0
SDX01,2024-253A,2025-01-25T21:20:03.475104,15.32516718,.0011216,54.9977,140.8634,5.4752,354.6394,0,U,62459,999,401,.83855E-3,.26438E-3,0
SDX02,2024-253B,2025-01-25T21:20:03.475104,15.32516718,.0011216,54.9977,140.8634,5.4752,354.6394,0,U,62460,999,245,.83855E-3,.26438E-3,0
POEM-4,2024-253C,2025-01-25T21:21:18.310464,15.76917186,.0008714,55.2214,130.6233,355.3401,4.7564,0,U,62461,999,412,.72703E-3,.121032E-2,0
STARLINK-11518 [DTC],2024-254A,2025-01-25T20:35:31.784064,15.77862835,.0001324,42.9989,163.6139,289.1962,70.8765,0,U,62462,999,524,.17793E-4,.26E-4,0
