STARLINK-32702          
1 62432U 24251A   25025.91668981 -.00015510  00000+0 -27120-3 0  9991
2 62432  53.1598  78.8949 0001272  93.3494 226.6163 15.49326013  5442
STARLINK-32712          
1 62433U 24251B   25025.91668981  .00123290  00000+0  21960-2 0  9990
2 62433  53.1598  78.8911 0001089  96.6680 225.1443 15.49230953  5443
STARLINK-32674          
1 62434U 24251C   25025.91668981 -.01509327  00000+0 -32561-1 0  9991
2 62434  53.1601  78.8927 0000909  84.6044 236.1485 15.46966157  5444
STARLINK-32711          
1 62435U 24251D   25025.91668981  .00004777  00000+0  93900-4 0  9995
2 62435  53.1597  78.8828 0001400  76.5170 249.2079 15.49309135  5440
STARLINK-32697          
1 62436U 24251E   25025.91668981  .00022207  00000+0  40693-3 0  9994
2 62436  53.1599  78.8744 0001196  88.7402 241.0231 15.49258217  5449
STARLINK-32693          
1 62437U 24251F   25025.91668981 -.01643216  00000+0 -12055-1 0  9996
2 62437  53.1588  76.9409 0001531  97.3397 107.8098 15.75263970  5459
STARLINK-32721          
1 62438U 24251G   25025.91668981  .00043348  00000+0  78365-3 0  9992
2 62438  53.1598  78.8708 0001193  85.3274 246.1496 15.49289977  5386
STARLINK-32709          
1 62439U 24251H   25025.91668981 -.01518245  00000+0 -31082-1 0  9992
2 62439  53.1597  78.8634 0001235  84.1652 250.7328 15.48474091  5442
STARLINK-32689          
1 62440U 24251J   25025.91668981 -.00180681  00000+0 -33036-2 0  9994
2 62440  53.1597  78.8666 0001137  95.1219 238.3789 15.49416267  5446
STARLINK-32724          
1 62441U 24251K   25025.91668981 -.00249365  00000+0 -46052-2 0  9992
2 62441  53.1599  78.8588 0001034  83.0353 254.1658 15.49399527  5274
STARLINK-32291          
1 62442U 24251L   25025.91668981  .00001962  00000+0  43333-4 0  9991
2 62442  53.1596  78.8548 0001218  89.3090 249.8254 15.49310882  5112
STARLINK-32736          
1 62443U 24251M   25025.91668981 -.01507563  00000+0 -31630-1 0  9997
2 62443  53.1597  78.8531 0001053 100.7842 238.9310 15.47757205  5288
STARLINK-32737          
1 62444U 24251N   25025.91668981  .00017210  00000+0  31663-3 0  9998
2 62444  53.1596  78.8469 0001401  95.0813 247.8549 15.49325797  5449
STARLINK-32683          
1 62445U 24251P   25025.91668981  .00067430  00000+0  12112-2 0  9995
2 62445  53.1596  78.8428 0001327  90.4843 254.3802 15.49280633  5448
STARLINK-32726          
1 62446U 24251Q   25025.91668981  .00002024  00000+0  44450-4 0  9996
2 62446  53.1596  78.8387 0001365  86.5234 260.2790 15.49307178  5115
STARLINK-32730          
1 62447U 24251R   25025.91668981  .00025426  00000+0  46383-3 0  9994
2 62447  53.1595  78.8308 0001319  93.0292 257.6058 15.49302088  5442
STARLINK-32719          
1 62448U 24251S   25025.57635355  .00012217  00000+0  88928-4 0  9992
2 62448  53.1597  78.7731 0001265 129.1841 230.9291 15.73831591  5182
STARLINK-32723          
1 62449U 24251T   25025.91668981  .00113387  00000+0  20230-2 0  9992
2 62449  53.1596  78.8269 0001293 105.3262 247.1503 15.49228542  5289
STARLINK-32722          
1 62450U 24251U   25025.91668981  .00048100  00000+0  86875-3 0  9992
2 62450  53.1596  78.8225 0001210  98.1987 256.2995 15.49270349  5069
STARLINK-32720          
1 62451U 24251V   25025.91668981 -.01507588  00000+0 -35900-1 0  9997
2 62451  53.1601  78.8483 0001026  79.5839 261.7523 15.44102076  5061
STARLINK-32656          
1 62452U 24251W   25025.91668981  .00015617  00000+0  28833-3 0  9991
2 62452  53.1596  78.8148 0001320  95.2951 263.0081 15.49304572  5288
STARLINK-32690          
1 62453U 24251X   25025.91668981  .00023602  00000+0  43133-3 0  9995
2 62453  53.1596  78.8107 0001213  94.1545 266.0705 15.49295553  5062
ASTRANIS UTILITYSAT     
1 62454U 24252A   25021.66139293 -.00000110  00000+0 -11476-1 0  9998
2 62454  11.1698 355.9791 7988891 187.7925 139.9006  1.09809624   262
NUVIEW ALPHA            
1 62455U 24252B   25021.95833333 -.00000113  00000+0  00000+0 0  9998
2 62455  11.0838 357.6757 7905305 184.9178 265.7366  1.09000805   257
AGILA                   
1 62456U 24252C   25021.58467654 -.00000190  00000+0 -43587-1 0  9992
2 62456  11.4595 355.6105 8010187 187.8727 139.0225  1.10005472   259
NUVIEW BRAVO            
1 62457U 24252D   25021.66572316 -.00000115  00000+0 -22724-1 0  9991
2 62457  11.2306 355.8383 7941964 187.7325 140.7903  1.08199063   255
SDX01                   
1 62459U 24253A   25025.88892911  .00026438  00000+0  83855-3 0  9996
2 62459  54.9977 140.8634 0011216   5.4752 354.6394 15.32516718  4017
SDX02                   
1 62460U 24253B   25025.88892911  .00026438  00000+0  83855-3 0  9998
2 62460  54.9977 140.8634 0011216   5.4752 354.6394 15.32516718  2455
POEM-4                  
1 62461U 24253C   25025.88979526  .00121032  00000+0  72703-3 0  9993
2 62461  55.2214 130.6233 0008714 355.3401   4.7564 15.76917186  4123
STARLINK-11518 [DTC]    
1 62462U 24254A   25025.85800676  .00002600  00000+0  17793-4 0  9999
2 62462  42.9989 163.6139 0001324 289.1962  70.8765 15.77862835  5245
FALCON 9 R/B            
1 62458U 24252E   25025.22112193  .00002122  00000+0  67645-3 0  9992
2 62458  12.4013 355.1216 8276721 189.0609 128.9032  1.16219878   285
